[{"OBJECT_NAME":"STARLINK-4647","OBJECT_ID":"2022-104W","EPOCH":"2025-10-12T02:55:52.190112","MEAN_MOTION":15.08838437,"ECCENTRICITY":0.0001585,"INCLINATION":53.2172,"RA_OF_ASC_NODE":181.2575,"ARG_OF_PERICENTER":96.969,"MEAN_ANOMALY":263.1482,"EPHEMERIS_TYPE":0,"CLASSIFICATION_TYPE":"U","NORAD_CAT_ID":53608,"ELEMENT_SET_NO":999,"REV_AT_EPOCH":17320,"BSTAR":-5.767558e-6,"MEAN_MOTION_DOT":-3.8e-6,"MEAN_MOTION_DDOT":0},{"OBJECT_NAME":"STARLINK-4660","OBJECT_ID":"2022-104X","EPOCH":"2025-10-12T03:24:15.795936","MEAN_MOTION":15.08837993,"ECCENTRICITY":0.00015364,"INCLINATION":53.2178,"RA_OF_ASC_NODE":185.678,"ARG_OF_PERICENTER":93.9186,"MEAN_ANOMALY":266.1982,"EPHEMERIS_TYPE":0,"CLASSIFICATION_TYPE":"U","NORAD_CAT_ID":53609,"ELEMENT_SET_NO":999,"REV_AT_EPOCH":17326,"BSTAR":0.0001561316,"MEAN_MOTION_DOT":2.198e-5,"MEAN_MOTION_DDOT":0},{"OBJECT_NAME":"STARLINK-4610","OBJECT_ID":"2022-104Y","EPOCH":"2025-10-12T02:46:39.659520","MEAN_MOTION":15.08843558,"ECCENTRICITY":0.00011432,"INCLINATION":53.2152,"RA_OF_ASC_NODE":181.219,"ARG_OF_PERICENTER":104.057,"MEAN_ANOMALY":256.0549,"EPHEMERIS_TYPE":0,"CLASSIFICATION_TYPE":"U","NORAD_CAT_ID":53610,"ELEMENT_SET_NO":999,"REV_AT_EPOCH":17320,"BSTAR":0.0007025243,"MEAN_MOTION_DOT":0.00010911,"MEAN_MOTION_DDOT":0},{"OBJECT_NAME":"STARLINK-4658","OBJECT_ID":"2022-104AA","EPOCH":"2025-10-12T02:39:56.948256","MEAN_MOTION":15.08820541,"ECCENTRICITY":0.00016495,"INCLINATION":53.2167,"RA_OF_ASC_NODE":181.1915,"ARG_OF_PERICENTER":82.6799,"MEAN_ANOMALY":277.438,"EPHEMERIS_TYPE":0,"CLASSIFICATION_TYPE":"U","NORAD_CAT_ID":53612,"ELEMENT_SET_NO":999,"REV_AT_EPOCH":17320,"BSTAR":0.00021800992,"MEAN_MOTION_DOT":3.182e-5,"MEAN_MOTION_DDOT":0},{"OBJECT_NAME":"STARLINK-4655","OBJECT_ID":"2022-104AB","EPOCH":"2025-10-12T02:50:33.580608","MEAN_MOTION":15.08849758,"ECCENTRICITY":0.00018435,"INCLINATION":53.2158,"RA_OF_ASC_NODE":181.2361,"ARG_OF_PERICENTER":79.4565,"MEAN_ANOMALY":280.6635,"EPHEMERIS_TYPE":0,"CLASSIFICATION_TYPE":"U","NORAD_CAT_ID":53613,"ELEMENT_SET_NO":999,"REV_AT_EPOCH":17320,"BSTAR":3.8882548e-5,"MEAN_MOTION_DOT":3.31e-6,"MEAN_MOTION_DDOT":0},{"OBJECT_NAME":"STARLINK-4605","OBJECT_ID":"2022-104AE","EPOCH":"2025-10-12T02:35:56.915232","MEAN_MOTION":15.08841495,"ECCENTRICITY":0.00014296,"INCLINATION":53.2163,"RA_OF_ASC_NODE":171.0027,"ARG_OF_PERICENTER":108.539,"MEAN_ANOMALY":251.5758,"EPHEMERIS_TYPE":0,"CLASSIFICATION_TYPE":"U","NORAD_CAT_ID":53616,"ELEMENT_SET_NO":999,"REV_AT_EPOCH":17345,"BSTAR":0.00049435805,"MEAN_MOTION_DOT":7.589e-5,"MEAN_MOTION_DDOT":0},{"OBJECT_NAME":"STARLINK-4609","OBJECT_ID":"2022-104AH","EPOCH":"2025-10-12T02:29:20.591520","MEAN_MOTION":15.08824604,"ECCENTRICITY":0.00014514,"INCLINATION":53.2157,"RA_OF_ASC_NODE":181.1451,"ARG_OF_PERICENTER":79.0248,"MEAN_ANOMALY":281.0907,"EPHEMERIS_TYPE":0,"CLASSIFICATION_TYPE":"U","NORAD_CAT_ID":53619,"ELEMENT_SET_NO":999,"REV_AT_EPOCH":17320,"BSTAR":0.00023369158,"MEAN_MOTION_DOT":3.432e-5,"MEAN_MOTION_DDOT":0},{"OBJECT_NAME":"STARLINK-4615","OBJECT_ID":"2022-104AJ","EPOCH":"2025-10-12T02:08:07.231776","MEAN_MOTION":15.08837115,"ECCENTRICITY":0.00014499,"INCLINATION":53.2184,"RA_OF_ASC_NODE":181.0549,"ARG_OF_PERICENTER":99.0952,"MEAN_ANOMALY":261.0204,"EPHEMERIS_TYPE":0,"CLASSIFICATION_TYPE":"U","NORAD_CAT_ID":53620,"ELEMENT_SET_NO":999,"REV_AT_EPOCH":17331,"BSTAR":3.7129671e-5,"MEAN_MOTION_DOT":3.03e-6,"MEAN_MOTION_DDOT":0},{"OBJECT_NAME":"STARLINK-4608","OBJECT_ID":"2022-104AK","EPOCH":"2025-10-12T02:24:01.937088","MEAN_MOTION":15.0884352,"ECCENTRICITY":0.00012795,"INCLINATION":53.2162,"RA_OF_ASC_NODE":181.1211,"ARG_OF_PERICENTER":93.1944,"MEAN_ANOMALY":266.9195,"EPHEMERIS_TYPE":0,"CLASSIFICATION_TYPE":"U","NORAD_CAT_ID":53621,"ELEMENT_SET_NO":999,"REV_AT_EPOCH":17320,"BSTAR":0.00014278457,"MEAN_MOTION_DOT":1.985e-5,"MEAN_MOTION_DDOT":0},{"OBJECT_NAME":"STARLINK-4568","OBJECT_ID":"2022-104AL","EPOCH":"2025-10-12T00:00:53.634528","MEAN_MOTION":15.08843122,"ECCENTRICITY":0.00015958,"INCLINATION":53.2175,"RA_OF_ASC_NODE":181.2183,"ARG_OF_PERICENTER":88.1474,"MEAN_ANOMALY":271.9701,"EPHEMERIS_TYPE":0,"CLASSIFICATION_TYPE":"U","NORAD_CAT_ID":53622,"ELEMENT_SET_NO":999,"REV_AT_EPOCH":17330,"BSTAR":0.00024126931,"MEAN_MOTION_DOT":3.554e-5,"MEAN_MOTION_DDOT":0},{"OBJECT_NAME":"STARLINK-4573","OBJECT_ID":"2022-104AM","EPOCH":"2025-10-12T02:13:25.430880","MEAN_MOTION":15.08841922,"ECCENTRICITY":0.00016139,"INCLINATION":53.2165,"RA_OF_ASC_NODE":181.076,"ARG_OF_PERICENTER":82.456,"MEAN_ANOMALY":277.6616,"EPHEMERIS_TYPE":0,"CLASSIFICATION_TYPE":"U","NORAD_CAT_ID":53623,"ELEMENT_SET_NO":999,"REV_AT_EPOCH":17331,"BSTAR":9.6906898e-5,"MEAN_MOTION_DOT":1.255e-5,"MEAN_MOTION_DDOT":0},{"OBJECT_NAME":"STARLINK-4596","OBJECT_ID":"2022-104AN","EPOCH":"2025-10-12T00:22:06.616704","MEAN_MOTION":15.08855665,"ECCENTRICITY":0.00014178,"INCLINATION":53.2175,"RA_OF_ASC_NODE":181.3066,"ARG_OF_PERICENTER":88.1582,"MEAN_ANOMALY":271.9573,"EPHEMERIS_TYPE":0,"CLASSIFICATION_TYPE":"U","NORAD_CAT_ID":53624,"ELEMENT_SET_NO":999,"REV_AT_EPOCH":17330,"BSTAR":5.290377e-6,"MEAN_MOTION_DOT":-2.04e-6,"MEAN_MOTION_DDOT":0},{"OBJECT_NAME":"STARLINK-4554","OBJECT_ID":"2022-104AQ","EPOCH":"2025-10-12T00:06:11.761920","MEAN_MOTION":15.08845841,"ECCENTRICITY":0.00014145,"INCLINATION":53.2168,"RA_OF_ASC_NODE":181.2365,"ARG_OF_PERICENTER":92.2179,"MEAN_ANOMALY":267.8975,"EPHEMERIS_TYPE":0,"CLASSIFICATION_TYPE":"U","NORAD_CAT_ID":53626,"ELEMENT_SET_NO":999,"REV_AT_EPOCH":17331,"BSTAR":0.0001830367,"MEAN_MOTION_DOT":2.627e-5,"MEAN_MOTION_DDOT":0},{"OBJECT_NAME":"STARLINK-4595","OBJECT_ID":"2022-104AR","EPOCH":"2025-10-12T03:27:34.784640","MEAN_MOTION":15.0884156,"ECCENTRICITY":0.00014358,"INCLINATION":53.217,"RA_OF_ASC_NODE":180.6879,"ARG_OF_PERICENTER":87.1423,"MEAN_ANOMALY":272.9733,"EPHEMERIS_TYPE":0,"CLASSIFICATION_TYPE":"U","NORAD_CAT_ID":53627,"ELEMENT_SET_NO":999,"REV_AT_EPOCH":17333,"BSTAR":5.4705918e-5,"MEAN_MOTION_DOT":5.83e-6,"MEAN_MOTION_DDOT":0},{"OBJECT_NAME":"STARLINK-4600","OBJECT_ID":"2022-104AS","EPOCH":"2025-10-12T03:06:18.985824","MEAN_MOTION":15.08861345,"ECCENTRICITY":0.00014425,"INCLINATION":53.2167,"RA_OF_ASC_NODE":180.5954,"ARG_OF_PERICENTER":84.5647,"MEAN_ANOMALY":275.551,"EPHEMERIS_TYPE":0,"CLASSIFICATION_TYPE":"U","NORAD_CAT_ID":53628,"ELEMENT_SET_NO":999,"REV_AT_EPOCH":17333,"BSTAR":0.0001893163,"MEAN_MOTION_DOT":2.728e-5,"MEAN_MOTION_DDOT":0},{"OBJECT_NAME":"STARLINK-4602","OBJECT_ID":"2022-104AT","EPOCH":"2025-10-12T00:11:30.247008","MEAN_MOTION":15.08841573,"ECCENTRICITY":0.00013438,"INCLINATION":53.2154,"RA_OF_ASC_NODE":181.2604,"ARG_OF_PERICENTER":88.497,"MEAN_ANOMALY":271.6176,"EPHEMERIS_TYPE":0,"CLASSIFICATION_TYPE":"U","NORAD_CAT_ID":53629,"ELEMENT_SET_NO":999,"REV_AT_EPOCH":17331,"BSTAR":0.00011023744,"MEAN_MOTION_DOT":1.467e-5,"MEAN_MOTION_DDOT":0}]
