53608,STARLINK-4647,2022,95.44,260.0,+,53.22,Active,1,LEO,USA,USA,Commercial,Communications,Falcon,1 53608U 22104W   25285.12213183 -.00000380  00000+0 -57676-5 0  9992,2 53608  53.2172 181.2575 0001585  96.9690 263.1482 15.08838437173207,15.08838437,0.0001585,LEO
53609,STARLINK-4660,2022,95.44,260.0,+,53.22,Active,1,LEO,USA,USA,Commercial,Communications,Falcon,1 53609U 22104X   25285.14184949  .00002198  00000+0  15613-3 0  9992,2 53609  53.2178 185.6780 0001536  93.9186 266.1982 15.08837993173263,15.08837993,0.0001536,LEO
53610,STARLINK-4610,2022,95.44,260.0,+,53.22,Active,1,LEO,USA,USA,Commercial,Communications,Falcon,1 53610U 22104Y   25285.11573680  .00010911  00000+0  70252-3 0  9997,2 53610  53.2152 181.2190 0001143 104.0570 256.0549 15.08843558173204,15.08843558,0.0001143,LEO
53612,STARLINK-4658,2022,95.44,260.0,+,53.22,Active,1,LEO,USA,USA,Commercial,Communications,Falcon,1 53612U 22104AA  25285.11107579  .00003182  00000+0  21801-3 0  9997,2 53612  53.2167 181.1915 0001649  82.6799 277.4380 15.08820541173208,15.08820541,0.0001649,LEO
53613,STARLINK-4655,2022,95.44,260.0,+,53.21,Active,1,LEO,USA,USA,Commercial,Communications,Falcon,1 53613U 22104AB  25285.11844422  .00000331  00000+0  38883-4 0  9995,2 53613  53.2158 181.2361 0001843  79.4565 280.6635 15.08849758173206,15.08849758,0.0001843,LEO
53616,STARLINK-4605,2022,95.44,260.0,+,53.22,Active,1,LEO,USA,USA,Commercial,Communications,Falcon,1 53616U 22104AE  25285.10829763  .00007589  00000+0  49436-3 0  9995,2 53616  53.2163 171.0027 0001429 108.5390 251.5758 15.08841495173451,15.08841495,0.0001429,LEO
53619,STARLINK-4609,2022,95.44,260.0,+,53.22,Active,1,LEO,USA,USA,Commercial,Communications,Falcon,1 53619U 22104AH  25285.10371055  .00003432  00000+0  23369-3 0  9994,2 53619  53.2157 181.1451 0001451  79.0248 281.0907 15.08824604173209,15.08824604,0.0001451,LEO
53620,STARLINK-4615,2022,95.43,260.0,+,53.22,Active,1,LEO,USA,USA,Commercial,Communications,Falcon,1 53620U 22104AJ  25285.08897259  .00000303  00000+0  37130-4 0  9998,2 53620  53.2184 181.0549 0001449  99.0952 261.0204 15.08837115173310,15.08837115,0.0001449,LEO
53621,STARLINK-4608,2022,95.44,260.0,+,53.22,Active,1,LEO,USA,USA,Commercial,Communications,Falcon,1 53621U 22104AK  25285.10002242  .00001985  00000+0  14278-3 0  9996,2 53621  53.2162 181.1211 0001279  93.1944 266.9195 15.08843520173209,15.0884352,0.0001279,LEO
53622,STARLINK-4568,2022,95.44,260.0,+,53.22,Active,1,LEO,USA,USA,Commercial,Communications,Falcon,1 53622U 22104AL  25285.00062077  .00003554  00000+0  24127-3 0  9996,2 53622  53.2175 181.2183 0001595  88.1474 271.9701 15.08843122173304,15.08843122,0.0001595,LEO
53623,STARLINK-4573,2022,95.44,260.0,+,53.22,Active,1,LEO,USA,USA,Commercial,Communications,Falcon,1 53623U 22104AM  25285.09265545  .00001255  00000+0  96907-4 0  9993,2 53623  53.2165 181.0760 0001613  82.4560 277.6616 15.08841922173312,15.08841922,0.0001613,LEO
53624,STARLINK-4596,2022,95.44,260.0,+,53.21,Active,1,LEO,USA,USA,Commercial,Communications,Falcon,1 53624U 22104AN  25285.01535436 -.00000204  00000+0  52904-5 0  9999,2 53624  53.2175 181.3066 0001417  88.1582 271.9573 15.08855665173302,15.08855665,0.0001417,LEO
53626,STARLINK-4554,2022,95.44,260.0,+,53.22,Active,1,LEO,USA,USA,Commercial,Communications,Falcon,1 53626U 22104AQ  25285.00430280  .00002627  00000+0  18304-3 0  9995,2 53626  53.2168 181.2365 0001414  92.2179 267.8975 15.08845841173318,15.08845841,0.0001414,LEO
53627,STARLINK-4595,2022,95.44,260.0,+,53.22,Active,1,LEO,USA,USA,Commercial,Communications,Falcon,1 53627U 22104AR  25285.14415260  .00000583  00000+0  54706-4 0  9998,2 53627  53.2170 180.6879 0001435  87.1423 272.9733 15.08841560173338,15.0884156,0.0001435,LEO
53628,STARLINK-4600,2022,95.44,260.0,+,53.22,Active,1,LEO,USA,USA,Commercial,Communications,Falcon,1 53628U 22104AS  25285.12938641  .00002728  00000+0  18932-3 0  9993,2 53628  53.2167 180.5954 0001442  84.5647 275.5510 15.08861345173330,15.08861345,0.0001442,LEO
53629,STARLINK-4602,2022,95.44,260.0,+,53.21,Active,1,LEO,USA,USA,Commercial,Communications,Falcon,1 53629U 22104AT  25285.00798897  .00001467  00000+0  11024-3 0  9992,2 53629  53.2154 181.2604 0001343  88.4970 271.6176 15.08841573173313,15.08841573,0.0001343,LEO
